NAVSTAR 48 (USA 151)    
1 26407U 00040A   26156.27224284  .00000035  00000+0  00000+0 0  9990
2 26407  54.8529 215.6358 0121187 302.4134  18.4278  2.00557642189707
NAVSTAR 51 (USA 166)    
1 27663U 03005A   26156.17365639  .00000035  00000+0  00000+0 0  9998
2 27663  54.8839 215.4464 0147933  53.0561 332.4546  2.00561259171079
NAVSTAR 54 (USA 177)    
1 28190U 04009A   26155.40209545 -.00000032  00000+0  00000+0 0  9995
2 28190  54.8408 276.2039 0115579 172.5421 169.2945  2.00555241162683
NAVSTAR 56 (USA 180)    
1 28474U 04045A   26153.78951816 -.00000077  00000+0  00000+0 0  9993
2 28474  55.1451 325.4759 0169815 316.0475   6.4312  2.00555416158131
NAVSTAR 57 (USA 183)    
1 28874U 05038A   26155.39791679 -.00000030  00000+0  00000+0 0  9997
2 28874  54.8889 273.6938 0127801 296.0673  70.8843  2.00566655151588
INMARSAT 4-F2           
1 28899U 05044A   26155.59348010 -.00000250  00000+0  00000+0 0  9994
2 28899   5.0782  43.7153 0003311  32.9925 173.4703  1.00271203 75396
NAVSTAR 58 (USA 190)    
1 29486U 06042A   26156.27488022  .00000080  00000+0  00000+0 0  9990
2 29486  54.7093 151.8119 0106328  54.1303 124.3216  2.00570621144158
NAVSTAR 59 (USA 192)    
1 29601U 06052A   26154.95642929  .00000037  00000+0  00000+0 0  9993
2 29601  54.9362 214.5309 0085368  90.7300 270.3341  2.00557537143149
NAVSTAR 60 (USA 196)    
1 32260U 07047A   26155.26126354 -.00000017  00000+0  00000+0 0  9996
2 32260  54.0860  80.5985 0166286  87.1331 274.7634  2.00555957136556
COSMOS 2433 [GLONASS-M] 
1 32275U 07052A   26153.36863725 -.00000050  00000+0  00000+0 0  9994
2 32275  65.5855 316.4315 0001968 187.3207 172.6647  2.13104318144746
COSMOS 2432 [GLONASS-M] 
1 32276U 07052B   26152.47921043 -.00000055  00000+0  00000+0 0  9999
2 32276  65.6026 316.5890 0007962 335.3326   6.2477  2.13103259144740
NAVSTAR 61 (USA 199)    
1 32384U 07062A   26155.51662985 -.00000031  00000+0  00000+0 0  9999
2 32384  55.0422 274.6622 0035492 164.8221 146.7304  2.00559423135257
COSMOS 2434 [GLONASS-M] 
1 32393U 07065A   26155.15117458  .00000066  00000+0  00000+0 0  9999
2 32393  64.3170 192.3554 0001057 345.7165 191.6787  2.13101482143498
COSMOS 2436 [GLONASS-M] 
1 32395U 07065C   26156.24129362  .00000070  00000+0  00000+0 0  9994
2 32395  64.3259 192.3911 0017162 354.7132  71.3509  2.13100377143479
NAVSTAR 62 (USA 201)    
1 32711U 08012A   26156.17083129  .00000079  00000+0  00000+0 0  9990
2 32711  54.4957 150.4047 0211023 247.6931 110.0563  2.00572164133518
NAVSTAR 64 (USA 206)    
1 35752U 09043A   26154.40739282 -.00000076  00000+0  00000+0 0  9993
2 35752  56.2018  27.9930 0053657  82.6377  94.8092  2.00555150123084
COSMOS 2456 [GLONASS-M] 
1 36111U 09070A   26156.34790211 -.00000011  00000+0  00000+0 0  9996
2 36111  65.0048  71.3753 0005032 326.3137 207.2482  2.13103925128178
COSMOS 2457 [GLONASS-M] 
1 36112U 09070B   26156.19380109 -.00000012  00000+0  00000+0 0  9992
2 36112  64.9906  71.2245 0002256 128.5746  54.2823  2.13101326128170
NAVSTAR 65 (USA 213)    
1 36585U 10022A   26154.54184649  .00000043  00000+0  00000+0 0  9996
2 36585  54.2714 209.1120 0126398  66.1333 326.5682  2.00561832117321
BEIDOU-2 IGSO-1         
1 36828U 10036A   26155.94303235 -.00000061  00000+0  00000+0 0  9991
2 36828  54.3007 163.0699 0059008 224.9601 312.4811  1.00276170 57970
BEIDOU-2 G4             
1 37210U 10057A   26156.16710527 -.00000100  00000+0  00000+0 0  9995
2 37210   3.6172  69.0187 0004819 203.4415 201.3150  1.00272356 57174
BEIDOU-2 IGSO-2         
1 37256U 10068A   26153.71703494 -.00000206  00000+0  00000+0 0  9997
2 37256  47.5760 272.0122 0055435 212.8539 131.7633  1.00288733 56649
BEIDOU-2 IGSO-3         
1 37384U 11013A   26155.63444529 -.00000179  00000+0  00000+0 0  9993
2 37384  62.3902  40.2715 0034446 185.4993   3.7397  1.00271497 55536
GSAT-8                  
1 37605U 11022A   26156.14639185  .00000096  00000+0  00000+0 0  9997
2 37605   2.0995  81.9707 0002193 219.7028  59.6936  1.00272287 53098
GSAT0101 (GALILEO-PFM)  
1 37846U 11060A   26154.94356154 -.00000073  00000+0  00000+0 0  9990
2 37846  56.9986 342.1203 0003386  47.2042 312.8361  1.70475864 90899
GSAT0102 (GALILEO-FM2)  
1 37847U 11060B   26154.86969530 -.00000073  00000+0  00000+0 0  9990
2 37847  57.0019 342.1227 0003534  13.6110 346.7054  1.70476132 90909
COSMOS 2476 [GLONASS-M] 
1 37867U 11064A   26155.54939512 -.00000010  00000+0  00000+0 0  9990
2 37867  65.2634  73.2975 0023086 239.8731 309.4293  2.13104008113491
COSMOS 2477 [GLONASS-M] 
1 37868U 11064B   26156.23786122 -.00000008  00000+0  00000+0 0  9992
2 37868  65.2703  73.3534 0020106 241.1638 296.6846  2.13103220113501
COSMOS 2475 [GLONASS-M] 
1 37869U 11064C   26155.35164142 -.00000010  00000+0  00000+0 0  9990
2 37869  65.2767  73.4049 0026011 253.8995 279.2439  2.13102038113490
